H-2A R/B                
1 27601U 02056E   17115.92642233  .00000075  00000-0  42241-4 0  9994
2 27601  98.3800 185.5183 0073452  90.5929   0.5890 14.31776003750334
CZ-4B R/B               
1 28059U 03049C   17115.74254049  .00000059  00000-0  26140-4 0  9991
2 28059  98.5687   0.6207 0051114  48.2104 352.7472 14.52484384716068
CZ-2C R/B               
1 28222U 04012C   17115.73128672  .00001543  00000-0  98633-4 0  9990
2 28222  97.5201  73.2296 0048740   7.6369  44.3534 15.09169720712660
SL-16 R/B               
1 28353U 04021B   17115.80626153  .00000331  00000-0  19830-3 0  9995
2 28353  71.0010 188.3170 0007053 275.2091  84.8226 14.14191982664759
CZ-2C R/B               
1 28480U 04046B   17115.83209209  .00000016  00000-0  21460-4 0  9998
2 28480  98.1928 215.4008 0142367  19.5777 131.3505 14.25634007646758
ARIANE 5 R/B            
1 28499U 04049H   17115.86132100  .00000165  00000-0  27852-4 0  9995
2 28499  98.0795 198.5720 0093008  25.4172  91.9435 14.79806553666259
CZ-2D R/B               
1 28738U 05024B   17115.88794931  .00001045  00000-0  66140-4 0  9994
2 28738  97.5026 153.7796 0012285 177.3561 182.7737 15.11084269647891
SUZAKU (ASTRO-EII)      
1 28773U 05025A   17115.84041152  .00002420  00000-0  11947-3 0  9992
2 28773  31.3831 275.8662 0004726 184.2855 175.7752 15.15709662649427
ALOS (DAICHI)           
1 28931U 06002A   17115.93058085  .00000339  00000-0  75879-4 0  9999
2 28931  97.8479 145.8884 0002448 100.2324 259.9156 14.62342248599823
H-2A R/B                
1 28932U 06002B   17115.88396534  .00000823  00000-0  82565-4 0  9996
2 28932  98.2072  36.6679 0091200 122.4145 280.1551 14.91319863609903
AKARI (ASTRO-F)         
1 28939U 06005A   17115.80206759  .00004873  00000-0  15139-3 0  9998
2 28939  98.2555 311.3205 0107693   8.8368 351.4731 15.28382783605092
RESURS-DK 1             
1 29228U 06021A   17115.90112613  .00000386  00000-0  36656-4 0  9997
2 29228  69.9359 231.1011 0002403  25.1652 334.9625 15.02137364600241
GENESIS 1               
1 29252U 06029A   17115.49648250  .00001558  00000-0  89235-4 0  9990
2 29252  64.5039  97.5862 0011330 304.3189 194.4997 15.16704477593756
CZ-4B R/B               
1 29507U 06046C   17115.90773977  .00001388  00000-0  11418-3 0  9991
2 29507  97.7947 123.3885 0043936  59.8739 300.6828 15.00074144573158
CZ-2C R/B               
1 31114U 07010B   17115.81665096  .00000028  00000-0  32177-4 0  9998
2 31114  98.4031  20.9977 0060028   8.8356 351.3863 14.19239534520093
COSMO-SKYMED 1          
1 31598U 07023A   17115.85295156 -.00000118  00000-0 -82599-5 0  9994
2 31598  97.8802 300.3518 0001640  88.3064 271.8338 14.82159887534694
GENESIS 2               
1 31789U 07028A   17115.62276849  .00001388  00000-0  81511-4 0  9994
2 31789  64.5027 134.9327 0034583 228.7288 131.0855 15.15985407540932
COSMOS 2428             
1 31792U 07029A   17115.86075973  .00000055  00000-0  55776-4 0  9994
2 31792  70.9124 161.9743 0007843 331.7848  28.2846 14.12256544506593
SL-16 R/B               
1 31793U 07029B   17115.62276523  .00000310  00000-0  18686-3 0  9995
2 31793  70.9738 139.5759 0002419 260.3149 238.0355 14.14381678507246
KORONAS-FOTON           
1 33504U 09003A   17115.58670414  .00000811  00000-0  41880-4 0  9992
2 33504  82.4404 285.2449 0018032 293.6695  66.2644 15.14779590453410
TIANGONG 1              
1 37820U 11053A   17115.60206675  .00042454  00000-0  25960-3 0  9991
2 37820  42.7595 161.4560 0017064  62.1314  75.4393 15.76395211319668
CZ-3B R/B               
1 38253U 12018D   17115.86204788  .01576498  45327-5  65553-3 0  9994
2 38253  54.8725 348.6270 1830754 179.0317 181.4991 12.16450013121606
H-2A R/B                
1 38341U 12025E   17115.90068395  .00000380  00000-0  52619-4 0  9992
2 38341  98.4367 189.9927 0055167 327.6681  32.1154 14.83549716267043
CUSAT 2 & FALCON 9 R/B  
1 39271U 13055G   17115.88950755  .00014652  00000-0  37921-3 0  9991
2 39271  80.9711  52.4414 0635861 357.0581   2.6923 14.36596653185114
ALOS-2                  
1 39766U 14029A   17115.83477478 -.00000459  00000-0 -54532-4 0  9993
2 39766  97.9185 213.9081 0001441  83.4434 276.6952 14.79469112157860
ASTRO-H (HITOMI)        
1 41337U 16012A   17115.36007213  .00000661  00000-0  47208-4 0  9993
2 41337  31.0055  93.5437 0012571 239.0337 120.9063 14.98286133 64992
